{"fetched_at":"2026-07-12T17:32:52.356Z","source":"https://celestrak.org/NORAD/elements/gp.php?NAME=KINEIS&FORMAT=JSON","constellation":"kineis","records":[{"OBJECT_NAME":"KINEIS-2D","OBJECT_ID":"2025-028C","EPOCH":"2026-07-12T03:21:25.775424","CLASSIFICATION_TYPE":"U","MEAN_MOTION":14.75763444,"ECCENTRICITY":0.00046629,"INCLINATION":97.9274,"RA_OF_ASC_NODE":245.1045,"ARG_OF_PERICENTER":116.238,"MEAN_ANOMALY":243.9309,"EPHEMERIS_TYPE":0,"NORAD_CAT_ID":62930,"ELEMENT_SET_NO":999,"REV_AT_EPOCH":7639,"BSTAR":0.00013699192,"MEAN_MOTION_DOT":0.00000888,"MEAN_MOTION_DDOT":0},{"OBJECT_NAME":"KINEIS-2E","OBJECT_ID":"2025-028D","EPOCH":"2026-07-12T02:05:13.076160","CLASSIFICATION_TYPE":"U","MEAN_MOTION":14.77082611,"ECCENTRICITY":0.00021275,"INCLINATION":97.8942,"RA_OF_ASC_NODE":244.1894,"ARG_OF_PERICENTER":97.6151,"MEAN_ANOMALY":262.5301,"EPHEMERIS_TYPE":0,"NORAD_CAT_ID":62931,"ELEMENT_SET_NO":999,"REV_AT_EPOCH":7645,"BSTAR":0.00011839455,"MEAN_MOTION_DOT":0.00000786,"MEAN_MOTION_DDOT":0},{"OBJECT_NAME":"KINEIS-2A","OBJECT_ID":"2025-028E","EPOCH":"2026-07-12T02:03:52.549632","CLASSIFICATION_TYPE":"U","MEAN_MOTION":14.73446042,"ECCENTRICITY":0.00060491,"INCLINATION":98.1289,"RA_OF_ASC_NODE":248.5101,"ARG_OF_PERICENTER":91.1989,"MEAN_ANOMALY":268.9911,"EPHEMERIS_TYPE":0,"NORAD_CAT_ID":62932,"ELEMENT_SET_NO":999,"REV_AT_EPOCH":7627,"BSTAR":0.00011933927,"MEAN_MOTION_DOT":0.00000723,"MEAN_MOTION_DDOT":0},{"OBJECT_NAME":"KINEIS-2B","OBJECT_ID":"2025-028G","EPOCH":"2026-07-12T09:40:13.947744","CLASSIFICATION_TYPE":"U","MEAN_MOTION":14.73447189,"ECCENTRICITY":0.0004934,"INCLINATION":97.9656,"RA_OF_ASC_NODE":245.8065,"ARG_OF_PERICENTER":80.2812,"MEAN_ANOMALY":279.8953,"EPHEMERIS_TYPE":0,"NORAD_CAT_ID":62934,"ELEMENT_SET_NO":999,"REV_AT_EPOCH":7637,"BSTAR":0.00011283,"MEAN_MOTION_DOT":0.00000683,"MEAN_MOTION_DDOT":0},{"OBJECT_NAME":"KINEIS-4E","OBJECT_ID":"2025-056A","EPOCH":"2026-07-12T12:44:45.209184","CLASSIFICATION_TYPE":"U","MEAN_MOTION":14.72298614,"ECCENTRICITY":0.0003024,"INCLINATION":97.9066,"RA_OF_ASC_NODE":316.7266,"ARG_OF_PERICENTER":90.2915,"MEAN_ANOMALY":269.8639,"EPHEMERIS_TYPE":0,"NORAD_CAT_ID":63300,"ELEMENT_SET_NO":999,"REV_AT_EPOCH":7085,"BSTAR":0.00013806,"MEAN_MOTION_DOT":0.00000824,"MEAN_MOTION_DDOT":0},{"OBJECT_NAME":"KINEIS-4C","OBJECT_ID":"2025-056B","EPOCH":"2026-07-12T11:24:46.375200","CLASSIFICATION_TYPE":"U","MEAN_MOTION":14.72320119,"ECCENTRICITY":0.0002579,"INCLINATION":97.9119,"RA_OF_ASC_NODE":316.9196,"ARG_OF_PERICENTER":222.9468,"MEAN_ANOMALY":137.1539,"EPHEMERIS_TYPE":0,"NORAD_CAT_ID":63301,"ELEMENT_SET_NO":999,"REV_AT_EPOCH":7085,"BSTAR":0.00014072,"MEAN_MOTION_DOT":0.00000841,"MEAN_MOTION_DDOT":0},{"OBJECT_NAME":"KINEIS-4D","OBJECT_ID":"2025-056C","EPOCH":"2026-07-12T11:29:32.873280","CLASSIFICATION_TYPE":"U","MEAN_MOTION":14.72422524,"ECCENTRICITY":0.0001311,"INCLINATION":97.904,"RA_OF_ASC_NODE":316.8983,"ARG_OF_PERICENTER":229.9125,"MEAN_ANOMALY":130.1968,"EPHEMERIS_TYPE":0,"NORAD_CAT_ID":63302,"ELEMENT_SET_NO":999,"REV_AT_EPOCH":7085,"BSTAR":0.00014025,"MEAN_MOTION_DOT":0.00000841,"MEAN_MOTION_DDOT":0},{"OBJECT_NAME":"KINEIS-4A","OBJECT_ID":"2025-056D","EPOCH":"2026-07-12T12:20:13.019712","CLASSIFICATION_TYPE":"U","MEAN_MOTION":14.72329637,"ECCENTRICITY":0.0001888,"INCLINATION":97.9134,"RA_OF_ASC_NODE":316.8812,"ARG_OF_PERICENTER":157.7915,"MEAN_ANOMALY":202.3374,"EPHEMERIS_TYPE":0,"NORAD_CAT_ID":63303,"ELEMENT_SET_NO":999,"REV_AT_EPOCH":7085,"BSTAR":0.00013741,"MEAN_MOTION_DOT":0.00000821,"MEAN_MOTION_DDOT":0},{"OBJECT_NAME":"KINEIS-4B","OBJECT_ID":"2025-056E","EPOCH":"2026-07-12T13:33:11.323296","CLASSIFICATION_TYPE":"U","MEAN_MOTION":14.72324206,"ECCENTRICITY":0.0005073,"INCLINATION":97.9146,"RA_OF_ASC_NODE":316.9875,"ARG_OF_PERICENTER":201.5957,"MEAN_ANOMALY":158.5038,"EPHEMERIS_TYPE":0,"NORAD_CAT_ID":63304,"ELEMENT_SET_NO":999,"REV_AT_EPOCH":7085,"BSTAR":0.00013718,"MEAN_MOTION_DOT":0.00000819,"MEAN_MOTION_DDOT":0}]}
