KINEIS-2D               
1 62930U 25028C   26193.13988166  .00000888  00000+0  13699-3 0  9994
2 62930  97.9274 245.1045 0004662 116.2380 243.9309 14.75763444 76390
KINEIS-2E               
1 62931U 25028D   26193.08695690  .00000786  00000+0  11839-3 0  9997
2 62931  97.8942 244.1894 0002127  97.6151 262.5301 14.77082611 76453
KINEIS-2A               
1 62932U 25028E   26193.08602488  .00000723  00000+0  11934-3 0  9998
2 62932  98.1289 248.5101 0006049  91.1989 268.9911 14.73446042 76271
KINEIS-2B               
1 62934U 25028G   26193.40293921  .00000683  00000+0  11283-3 0  9996
2 62934  97.9656 245.8065 0004934  80.2812 279.8953 14.73447189 76373
KINEIS-4E               
1 63300U 25056A   26193.53107881  .00000824  00000+0  13806-3 0  9998
2 63300  97.9066 316.7266 0003024  90.2915 269.8639 14.72298614 70854
KINEIS-4C               
1 63301U 25056B   26193.47553675  .00000841  00000+0  14072-3 0  9993
2 63301  97.9119 316.9196 0002579 222.9468 137.1539 14.72320119 70851
KINEIS-4D               
1 63302U 25056C   26193.47885270  .00000841  00000+0  14025-3 0  9991
2 63302  97.9040 316.8983 0001311 229.9125 130.1968 14.72422524 70850
KINEIS-4A               
1 63303U 25056D   26193.51403958  .00000821  00000+0  13741-3 0  9998
2 63303  97.9134 316.8812 0001888 157.7915 202.3374 14.72329637 70854
KINEIS-4B               
1 63304U 25056E   26193.56471439  .00000819  00000+0  13718-3 0  9994
2 63304  97.9146 316.9875 0005073 201.5957 158.5038 14.72324206 70858
